{
  "type": "FeatureCollection",
  "features": [
    {
      "type": "Feature",
      "properties": {
        "norad_id": 36053,
        "name": "COSMOS 2251 DEB",
        "group": "cosmos-2251-debris",
        "lat": 23.72227973224676,
        "lon": 177.8075042159516,
        "alt_km": 705.3837023870055,
        "timestamp": "2025-12-03T10:52:57.853603+00:00",
        "meta_object_name": "COSMOS 2251 DEB",
        "meta_object_id": "1993-036AXQ",
        "meta_epoch": "2025-12-01T06:02:04.873920",
        "meta_mean_motion": 14.56926822,
        "meta_eccentricity": 0.0033176,
        "meta_inclination": 73.8721,
        "meta_ra_of_asc_node": 174.7239,
        "meta_arg_of_pericenter": 127.7081,
        "meta_mean_anomaly": 232.7098,
        "meta_ephemeris_type": 0,
        "meta_classification_type": "U",
        "meta_norad_cat_id": 36053,
        "meta_element_set_no": 999,
        "meta_rev_at_epoch": 87277,
        "meta_bstar": 0.0017117,
        "meta_mean_motion_dot": 7.72e-05,
        "meta_mean_motion_ddot": 0,
        "tle_line1": "1 36053U 93036AXQ 25335.25144530  .00007720  00000+0  17117-2 0  9994",
        "tle_line2": "2 36053  73.8721 174.7239 0033176 127.7081 232.7098 14.56926822872773"
      },
      "geometry": {
        "type": "Point",
        "coordinates": [
          177.8075042159516,
          23.72227973224676
        ]
      }
    },
    {
      "type": "Feature",
      "properties": {
        "norad_id": 36058,
        "name": "COSMOS 2251 DEB",
        "group": "cosmos-2251-debris",
        "lat": 71.853099300056,
        "lon": 170.2251338127062,
        "alt_km": 689.6480798480288,
        "timestamp": "2025-12-03T10:52:57.853614+00:00",
        "meta_object_name": "COSMOS 2251 DEB",
        "meta_object_id": "1993-036AXV",
        "meta_epoch": "2025-12-02T21:15:38.245248",
        "meta_mean_motion": 14.58601869,
        "meta_eccentricity": 0.0045224,
        "meta_inclination": 74.0244,
        "meta_ra_of_asc_node": 52.2381,
        "meta_arg_of_pericenter": 188.8227,
        "meta_mean_anomaly": 171.2148,
        "meta_ephemeris_type": 0,
        "meta_classification_type": "U",
        "meta_norad_cat_id": 36058,
        "meta_element_set_no": 999,
        "meta_rev_at_epoch": 65967,
        "meta_bstar": 0.00090546,
        "meta_mean_motion_dot": 4.247e-05,
        "meta_mean_motion_ddot": 0,
        "tle_line1": "1 36058U 93036AXV 25336.88585932  .00004247  00000+0  90546-3 0  9993",
        "tle_line2": "2 36058  74.0244  52.2381 0045224 188.8227 171.2148 14.58601869659674"
      },
      "geometry": {
        "type": "Point",
        "coordinates": [
          170.2251338127062,
          71.853099300056
        ]
      }
    },
    {
      "type": "Feature",
      "properties": {
        "norad_id": 36060,
        "name": "COSMOS 2251 DEB",
        "group": "cosmos-2251-debris",
        "lat": -17.979819685842948,
        "lon": 77.11875333331204,
        "alt_km": 765.9831782043384,
        "timestamp": "2025-12-03T10:52:57.853623+00:00",
        "meta_object_name": "COSMOS 2251 DEB",
        "meta_object_id": "1993-036AXX",
        "meta_epoch": "2025-12-03T03:18:13.792032",
        "meta_mean_motion": 14.41961785,
        "meta_eccentricity": 0.0014943,
        "meta_inclination": 74.0292,
        "meta_ra_of_asc_node": 252.3714,
        "meta_arg_of_pericenter": 350.4123,
        "meta_mean_anomaly": 9.6745,
        "meta_ephemeris_type": 0,
        "meta_classification_type": "U",
        "meta_norad_cat_id": 36060,
        "meta_element_set_no": 999,
        "meta_rev_at_epoch": 84871,
        "meta_bstar": 0.00046786,
        "meta_mean_motion_dot": 1.509e-05,
        "meta_mean_motion_ddot": 0,
        "tle_line1": "1 36060U 93036AXX 25337.13765963  .00001509  00000+0  46786-3 0  9994",
        "tle_line2": "2 36060  74.0292 252.3714 0014943 350.4123   9.6745 14.41961785848719"
      },
      "geometry": {
        "type": "Point",
        "coordinates": [
          77.11875333331204,
          -17.979819685842948
        ]
      }
    },
    {
      "type": "Feature",
      "properties": {
        "norad_id": 36061,
        "name": "COSMOS 2251 DEB",
        "group": "cosmos-2251-debris",
        "lat": -59.09677900717526,
        "lon": -11.835262114950288,
        "alt_km": 812.2972533593929,
        "timestamp": "2025-12-03T10:52:57.853633+00:00",
        "meta_object_name": "COSMOS 2251 DEB",
        "meta_object_id": "1993-036AXY",
        "meta_epoch": "2025-12-02T10:03:29.896128",
        "meta_mean_motion": 14.33681978,
        "meta_eccentricity": 0.00369065,
        "meta_inclination": 74.0244,
        "meta_ra_of_asc_node": 18.6507,
        "meta_arg_of_pericenter": 109.9251,
        "meta_mean_anomaly": 250.5883,
        "meta_ephemeris_type": 0,
        "meta_classification_type": "U",
        "meta_norad_cat_id": 36061,
        "meta_element_set_no": 999,
        "meta_rev_at_epoch": 64956,
        "meta_bstar": 0.00036059137,
        "meta_mean_motion_dot": 9.82e-06,
        "meta_mean_motion_ddot": 0,
        "tle_line1": "1 36061U 93036AXY 25336.41909602  .00000982  00000+0  36059-3 0  9991",
        "tle_line2": "2 36061  74.0244  18.6507 0036906 109.9251 250.5883 14.33681978649568"
      },
      "geometry": {
        "type": "Point",
        "coordinates": [
          -11.835262114950288,
          -59.09677900717526
        ]
      }
    },
    {
      "type": "Feature",
      "properties": {
        "norad_id": 36073,
        "name": "COSMOS 2251 DEB",
        "group": "cosmos-2251-debris",
        "lat": -8.248790138734437,
        "lon": -22.79624428205088,
        "alt_km": 770.2352026107574,
        "timestamp": "2025-12-03T10:52:57.853644+00:00",
        "meta_object_name": "COSMOS 2251 DEB",
        "meta_object_id": "1993-036AYL",
        "meta_epoch": "2025-12-02T18:11:25.029312",
        "meta_mean_motion": 14.34931351,
        "meta_eccentricity": 0.0023452,
        "meta_inclination": 74.0318,
        "meta_ra_of_asc_node": 340.8572,
        "meta_arg_of_pericenter": 51.9571,
        "meta_mean_anomaly": 308.3693,
        "meta_ephemeris_type": 0,
        "meta_classification_type": "U",
        "meta_norad_cat_id": 36073,
        "meta_element_set_no": 999,
        "meta_rev_at_epoch": 70064,
        "meta_bstar": 0.00029028,
        "meta_mean_motion_dot": 8.02e-06,
        "meta_mean_motion_ddot": 0,
        "tle_line1": "1 36073U 93036AYL 25336.75792858  .00000802  00000+0  29028-3 0  9993",
        "tle_line2": "2 36073  74.0318 340.8572 0023452  51.9571 308.3693 14.34931351700640"
      },
      "geometry": {
        "type": "Point",
        "coordinates": [
          -22.79624428205088,
          -8.248790138734437
        ]
      }
    },
    {
      "type": "Feature",
      "properties": {
        "norad_id": 36074,
        "name": "COSMOS 2251 DEB",
        "group": "cosmos-2251-debris",
        "lat": -16.347524960379882,
        "lon": -177.36877454784852,
        "alt_km": 757.9532995956606,
        "timestamp": "2025-12-03T10:52:57.853654+00:00",
        "meta_object_name": "COSMOS 2251 DEB",
        "meta_object_id": "1993-036AYM",
        "meta_epoch": "2025-11-30T08:47:56.269536",
        "meta_mean_motion": 14.43612377,
        "meta_eccentricity": 0.00417412,
        "meta_inclination": 73.9972,
        "meta_ra_of_asc_node": 3.551,
        "meta_arg_of_pericenter": 99.6494,
        "meta_mean_anomaly": 260.9382,
        "meta_ephemeris_type": 0,
        "meta_classification_type": "U",
        "meta_norad_cat_id": 36074,
        "meta_element_set_no": 999,
        "meta_rev_at_epoch": 85731,
        "meta_bstar": 0.00086426668,
        "meta_mean_motion_dot": 2.936e-05,
        "meta_mean_motion_ddot": 0,
        "tle_line1": "1 36074U 93036AYM 25334.36662349  .00002936  00000+0  86427-3 0  9996",
        "tle_line2": "2 36074  73.9972   3.5510 0041741  99.6494 260.9382 14.43612377857313"
      },
      "geometry": {
        "type": "Point",
        "coordinates": [
          -177.36877454784852,
          -16.347524960379882
        ]
      }
    },
    {
      "type": "Feature",
      "properties": {
        "norad_id": 36366,
        "name": "COSMOS 2251 DEB",
        "group": "cosmos-2251-debris",
        "lat": 57.716370839965656,
        "lon": 83.12759493319764,
        "alt_km": 835.6780190152776,
        "timestamp": "2025-12-03T10:52:57.853665+00:00",
        "meta_object_name": "COSMOS 2251 DEB",
        "meta_object_id": "1993-036AYT",
        "meta_epoch": "2025-12-02T05:51:07.218720",
        "meta_mean_motion": 14.33192884,
        "meta_eccentricity": 0.0091167,
        "meta_inclination": 74.0653,
        "meta_ra_of_asc_node": 292.2194,
        "meta_arg_of_pericenter": 322.5756,
        "meta_mean_anomaly": 36.9067,
        "meta_ephemeris_type": 0,
        "meta_classification_type": "U",
        "meta_norad_cat_id": 36366,
        "meta_element_set_no": 999,
        "meta_rev_at_epoch": 86138,
        "meta_bstar": 0.0027816,
        "meta_mean_motion_dot": 7.987e-05,
        "meta_mean_motion_ddot": 0,
        "tle_line1": "1 36366U 93036AYT 25336.24383355  .00007987  00000+0  27816-2 0  9993",
        "tle_line2": "2 36366  74.0653 292.2194 0091167 322.5756  36.9067 14.33192884861384"
      },
      "geometry": {
        "type": "Point",
        "coordinates": [
          83.12759493319764,
          57.716370839965656
        ]
      }
    }
  ]
}